[{"COMMENT":"GENERATED VIA SPACETRACK.ORG API","ORIGINATOR":"18 SPCS","NORAD_CAT_ID":"43476","OBJECT_NAME":"GRACE-FO 1","OBJECT_TYPE":"PAYLOAD","CLASSIFICATION_TYPE":"U","INTLDES":"18047A","EPOCH":"2023-12-21 03:15:54","EPOCH_MICROSECONDS":"142848","MEAN_MOTION":"15.27629996","ECCENTRICITY":"0.0015795","INCLINATION":"88.9821","RA_OF_ASC_NODE":"323.706","ARG_OF_PERICENTER":"47.4501","MEAN_ANOMALY":"312.8079","EPHEMERIS_TYPE":"0","ELEMENT_SET_NO":"999","REV_AT_EPOCH":"31052","BSTAR":"0.00019722","MEAN_MOTION_DOT":"0.00005371","MEAN_MOTION_DDOT":"0","FILE":"4141321","TLE_LINE0":"0 GRACE-FO 1","TLE_LINE1":"1 43476U 18047A   23355.13604332  .00005371  00000-0  19722-3 0  9994","TLE_LINE2":"2 43476  88.9821 323.7060 0015795  47.4501 312.8079 15.27629996310528","OBJECT_ID":"2018-047A","OBJECT_NUMBER":"43476","SEMIMAJOR_AXIS":"6861.036","PERIOD":"94.264","APOGEE":"493.738","PERIGEE":"472.064","DECAYED":"0"},{"COMMENT":"GENERATED VIA SPACETRACK.ORG API","ORIGINATOR":"18 SPCS","NORAD_CAT_ID":"43476","OBJECT_NAME":"GRACE-FO 1","OBJECT_TYPE":"PAYLOAD","CLASSIFICATION_TYPE":"U","INTLDES":"18047A","EPOCH":"2023-12-21 14:16:12","EPOCH_MICROSECONDS":"494784","MEAN_MOTION":"15.27634771","ECCENTRICITY":"0.0015723","INCLINATION":"88.9821","RA_OF_ASC_NODE":"323.6431","ARG_OF_PERICENTER":"45.9714","MEAN_ANOMALY":"314.2828","EPHEMERIS_TYPE":"0","ELEMENT_SET_NO":"999","REV_AT_EPOCH":"31059","BSTAR":"0.0001961","MEAN_MOTION_DOT":"0.00005341","MEAN_MOTION_DDOT":"0","FILE":"4141803","TLE_LINE0":"0 GRACE-FO 1","TLE_LINE1":"1 43476U 18047A   23355.59458906  .00005341  00000-0  19610-3 0  9991","TLE_LINE2":"2 43476  88.9821 323.6431 0015723  45.9714 314.2828 15.27634771310591","OBJECT_ID":"2018-047A","OBJECT_NUMBER":"43476","SEMIMAJOR_AXIS":"6861.022","PERIOD":"94.263","APOGEE":"493.675","PERIGEE":"472.100","DECAYED":"0"},{"COMMENT":"GENERATED VIA SPACETRACK.ORG API","ORIGINATOR":"18 SPCS","NORAD_CAT_ID":"43476","OBJECT_NAME":"GRACE-FO 1","OBJECT_TYPE":"PAYLOAD","CLASSIFICATION_TYPE":"U","INTLDES":"18047A","EPOCH":"2023-12-21 22:07:51","EPOCH_MICROSECONDS":"224160","MEAN_MOTION":"15.27638589","ECCENTRICITY":"0.0015679","INCLINATION":"88.982","RA_OF_ASC_NODE":"323.5982","ARG_OF_PERICENTER":"44.8685","MEAN_ANOMALY":"315.3829","EPHEMERIS_TYPE":"0","ELEMENT_SET_NO":"999","REV_AT_EPOCH":"31064","BSTAR":"0.00019572","MEAN_MOTION_DOT":"0.00005331","MEAN_MOTION_DDOT":"0","FILE":"4141951","TLE_LINE0":"0 GRACE-FO 1","TLE_LINE1":"1 43476U 18047A   23355.92212065  .00005331  00000-0  19572-3 0  9998","TLE_LINE2":"2 43476  88.9820 323.5982 0015679  44.8685 315.3829 15.27638589310645","OBJECT_ID":"2018-047A","OBJECT_NUMBER":"43476","SEMIMAJOR_AXIS":"6861.011","PERIOD":"94.263","APOGEE":"493.633","PERIGEE":"472.118","DECAYED":"0"},{"COMMENT":"GENERATED VIA SPACETRACK.ORG API","ORIGINATOR":"18 SPCS","NORAD_CAT_ID":"43476","OBJECT_NAME":"GRACE-FO 1","OBJECT_TYPE":"PAYLOAD","CLASSIFICATION_TYPE":"U","INTLDES":"18047A","EPOCH":"2023-12-22 10:42:29","EPOCH_MICROSECONDS":"52576","MEAN_MOTION":"15.27644526","ECCENTRICITY":"0.0015596","INCLINATION":"88.9819","RA_OF_ASC_NODE":"323.5264","ARG_OF_PERICENTER":"43.1727","MEAN_ANOMALY":"317.0742","EPHEMERIS_TYPE":"0","ELEMENT_SET_NO":"999","REV_AT_EPOCH":"31072","BSTAR":"0.00019582","MEAN_MOTION_DOT":"0.00005335","MEAN_MOTION_DDOT":"0","FILE":"4142305","TLE_LINE0":"0 GRACE-FO 1","TLE_LINE1":"1 43476U 18047A   23356.44616959  .00005335  00000-0  19582-3 0  9991","TLE_LINE2":"2 43476  88.9819 323.5264 0015596  43.1727 317.0742 15.27644526310723","OBJECT_ID":"2018-047A","OBJECT_NUMBER":"43476","SEMIMAJOR_AXIS":"6860.993","PERIOD":"94.263","APOGEE":"493.558","PERIGEE":"472.157","DECAYED":"0"},{"COMMENT":"GENERATED VIA SPACETRACK.ORG API","ORIGINATOR":"18 SPCS","NORAD_CAT_ID":"43476","OBJECT_NAME":"GRACE-FO 1","OBJECT_TYPE":"PAYLOAD","CLASSIFICATION_TYPE":"U","INTLDES":"18047A","EPOCH":"2023-12-22 13:51:08","EPOCH_MICROSECONDS":"468640","MEAN_MOTION":"15.27646882","ECCENTRICITY":"0.001557","INCLINATION":"88.9819","RA_OF_ASC_NODE":"323.5085","ARG_OF_PERICENTER":"42.7423","MEAN_ANOMALY":"317.5034","EPHEMERIS_TYPE":"0","ELEMENT_SET_NO":"999","REV_AT_EPOCH":"31074","BSTAR":"0.00021198","MEAN_MOTION_DOT":"0.00005773","MEAN_MOTION_DDOT":"0","FILE":"4142519","TLE_LINE0":"0 GRACE-FO 1","TLE_LINE1":"1 43476U 18047A   23356.57718135  .00005773  00000-0  21198-3 0  9996","TLE_LINE2":"2 43476  88.9819 323.5085 0015570  42.7423 317.5034 15.27646882310742","OBJECT_ID":"2018-047A","OBJECT_NUMBER":"43476","SEMIMAJOR_AXIS":"6860.986","PERIOD":"94.263","APOGEE":"493.533","PERIGEE":"472.168","DECAYED":"0"},{"COMMENT":"GENERATED VIA SPACETRACK.ORG API","ORIGINATOR":"18 SPCS","NORAD_CAT_ID":"43476","OBJECT_NAME":"GRACE-FO 1","OBJECT_TYPE":"PAYLOAD","CLASSIFICATION_TYPE":"U","INTLDES":"18047A","EPOCH":"2023-12-22 21:42:46","EPOCH_MICROSECONDS":"990656","MEAN_MOTION":"15.27649776","ECCENTRICITY":"0.001552","INCLINATION":"88.9819","RA_OF_ASC_NODE":"323.4636","ARG_OF_PERICENTER":"41.6184","MEAN_ANOMALY":"318.6244","EPHEMERIS_TYPE":"0","ELEMENT_SET_NO":"999","REV_AT_EPOCH":"31079","BSTAR":"0.00019128","MEAN_MOTION_DOT":"0.00005212","MEAN_MOTION_DDOT":"0","FILE":"4142803","TLE_LINE0":"0 GRACE-FO 1","TLE_LINE1":"1 43476U 18047A   23356.90471054  .00005212  00000-0  19128-3 0  9997","TLE_LINE2":"2 43476  88.9819 323.4636 0015520  41.6184 318.6244 15.27649776310795","OBJECT_ID":"2018-047A","OBJECT_NUMBER":"43476","SEMIMAJOR_AXIS":"6860.977","PERIOD":"94.262","APOGEE":"493.490","PERIGEE":"472.194","DECAYED":"0"},{"COMMENT":"GENERATED VIA SPACETRACK.ORG API","ORIGINATOR":"18 SPCS","NORAD_CAT_ID":"43476","OBJECT_NAME":"GRACE-FO 1","OBJECT_TYPE":"PAYLOAD","CLASSIFICATION_TYPE":"U","INTLDES":"18047A","EPOCH":"2023-12-23 11:51:44","EPOCH_MICROSECONDS":"181504","MEAN_MOTION":"15.2765589","ECCENTRICITY":"0.0015418","INCLINATION":"88.9819","RA_OF_ASC_NODE":"323.3827","ARG_OF_PERICENTER":"39.6958","MEAN_ANOMALY":"320.5417","EPHEMERIS_TYPE":"0","ELEMENT_SET_NO":"999","REV_AT_EPOCH":"31088","BSTAR":"0.0001856","MEAN_MOTION_DOT":"0.00005059","MEAN_MOTION_DDOT":"0","FILE":"4143097","TLE_LINE0":"0 GRACE-FO 1","TLE_LINE1":"1 43476U 18047A   23357.49426136  .00005059  00000-0  18560-3 0  9991","TLE_LINE2":"2 43476  88.9819 323.3827 0015418  39.6958 320.5417 15.27655890310886","OBJECT_ID":"2018-047A","OBJECT_NUMBER":"43476","SEMIMAJOR_AXIS":"6860.959","PERIOD":"94.262","APOGEE":"493.402","PERIGEE":"472.246","DECAYED":"0"},{"COMMENT":"GENERATED VIA SPACETRACK.ORG API","ORIGINATOR":"18 SPCS","NORAD_CAT_ID":"43476","OBJECT_NAME":"GRACE-FO 1","OBJECT_TYPE":"PAYLOAD","CLASSIFICATION_TYPE":"U","INTLDES":"18047A","EPOCH":"2023-12-23 13:26:03","EPOCH_MICROSECONDS":"844608","MEAN_MOTION":"15.27657489","ECCENTRICITY":"0.0015403","INCLINATION":"88.9819","RA_OF_ASC_NODE":"323.3738","ARG_OF_PERICENTER":"39.4862","MEAN_ANOMALY":"320.7507","EPHEMERIS_TYPE":"0","ELEMENT_SET_NO":"999","REV_AT_EPOCH":"31089","BSTAR":"0.0002022","MEAN_MOTION_DOT":"0.00005509","MEAN_MOTION_DDOT":"0","FILE":"4143387","TLE_LINE0":"0 GRACE-FO 1","TLE_LINE1":"1 43476U 18047A   23357.55976672  .00005509  00000-0  20220-3 0  9999","TLE_LINE2":"2 43476  88.9819 323.3738 0015403  39.4862 320.7507 15.27657489310892","OBJECT_ID":"2018-047A","OBJECT_NUMBER":"43476","SEMIMAJOR_AXIS":"6860.954","PERIOD":"94.262","APOGEE":"493.387","PERIGEE":"472.251","DECAYED":"0"},{"COMMENT":"GENERATED VIA SPACETRACK.ORG API","ORIGINATOR":"18 SPCS","NORAD_CAT_ID":"43476","OBJECT_NAME":"GRACE-FO 1","OBJECT_TYPE":"PAYLOAD","CLASSIFICATION_TYPE":"U","INTLDES":"18047A","EPOCH":"2023-12-23 21:17:42","EPOCH_MICROSECONDS":"184320","MEAN_MOTION":"15.27660617","ECCENTRICITY":"0.0015351","INCLINATION":"88.9819","RA_OF_ASC_NODE":"323.3288","ARG_OF_PERICENTER":"38.3812","MEAN_ANOMALY":"321.8527","EPHEMERIS_TYPE":"0","ELEMENT_SET_NO":"999","REV_AT_EPOCH":"31094","BSTAR":"0.00019459","MEAN_MOTION_DOT":"0.00005303","MEAN_MOTION_DDOT":"0","FILE":"4143662","TLE_LINE0":"0 GRACE-FO 1","TLE_LINE1":"1 43476U 18047A   23357.88729380  .00005303  00000-0  19459-3 0  9991","TLE_LINE2":"2 43476  88.9819 323.3288 0015351  38.3812 321.8527 15.27660617310944","OBJECT_ID":"2018-047A","OBJECT_NUMBER":"43476","SEMIMAJOR_AXIS":"6860.945","PERIOD":"94.262","APOGEE":"493.342","PERIGEE":"472.277","DECAYED":"0"},{"COMMENT":"GENERATED VIA SPACETRACK.ORG API","ORIGINATOR":"18 SPCS","NORAD_CAT_ID":"43476","OBJECT_NAME":"GRACE-FO 1","OBJECT_TYPE":"PAYLOAD","CLASSIFICATION_TYPE":"U","INTLDES":"18047A","EPOCH":"2023-12-24 14:35:18","EPOCH_MICROSECONDS":"295296","MEAN_MOTION":"15.27668355","ECCENTRICITY":"0.0015225","INCLINATION":"88.9821","RA_OF_ASC_NODE":"323.23","ARG_OF_PERICENTER":"36.0157","MEAN_ANOMALY":"324.2115","EPHEMERIS_TYPE":"0","ELEMENT_SET_NO":"999","REV_AT_EPOCH":"31105","BSTAR":"0.00020118","MEAN_MOTION_DOT":"0.00005483","MEAN_MOTION_DDOT":"0","FILE":"4144212","TLE_LINE0":"0 GRACE-FO 1","TLE_LINE1":"1 43476U 18047A   23358.60785064  .00005483  00000-0  20118-3 0  9996","TLE_LINE2":"2 43476  88.9821 323.2300 0015225  36.0157 324.2115 15.27668355311058","OBJECT_ID":"2018-047A","OBJECT_NUMBER":"43476","SEMIMAJOR_AXIS":"6860.922","PERIOD":"94.261","APOGEE":"493.232","PERIGEE":"472.341","DECAYED":"0"}]